TEVEL2-2                
1 63219U 25052K   26138.15960098  .00009421  00000+0  29987-3 0  9996
2 63219  97.3912  34.1244 0001750 177.2804 182.8448 15.32794871 65490
TEVEL2-9                
1 63237U 25052AD  26138.16449175  .00008810  00000+0  29746-3 0  9999
2 63237  97.3974  33.5674 0004219 237.0986 122.9849 15.30908650 65431
TEVEL2-7                
1 63238U 25052AE  26138.19989160  .00008649  00000+0  29451-3 0  9999
2 63238  97.3976  33.5307 0004394 237.4810 122.6007 15.30638211 65437
TEVEL2-8                
1 63239U 25052AF  26137.68481206  .00009067  00000+0  30887-3 0  9991
2 63239  97.3978  32.9954 0004253 241.2273 118.8541 15.30610503 65356
HADES-ICM               
1 63492U 25052BN  26137.97866731  .01545954  15531-2  22396-2 0  9998
2 63492  97.3719  42.5940 0010983 184.5860 175.5323 16.05564593 66034
INNOSAT 16 (RS92S7)     
1 64878U 25155C   26138.15227853  .00003864  00000+0  15720-3 0  9992
2 64878  97.4552 105.3882 0008649 296.8781  63.1572 15.25103416 76096
GEOSCAN 6 (RS92S6)      
1 64879U 25155D   26138.15911470  .00006009  00000+0  21253-3 0  9990
2 64879  97.4545 106.6132 0005618 288.8903  71.1727 15.29535321 76179
GEOSCAN 1 (RS92S1)      
1 64880U 25155E   26138.17274843  .00006572  00000+0  22833-3 0  9990
2 64880  97.4543 106.7500 0005507 289.1135  70.9509 15.30080445 76187
239ALFEROV (RS61S)      
1 64881U 25155F   26138.18327334  .00008869  00000+0  28885-3 0  9990
2 64881  97.4544 107.2256 0004893 288.0400  72.0308 15.32070658 76214
GEOSCAN 2 (RS92S2)      
1 64890U 25155Q   26138.17178838  .00006486  00000+0  22349-3 0  9994
2 64890  97.4541 106.8894 0004768 270.1058  89.9636 15.30360313 76192
GEOSCAN 5 (RS92S5)      
1 64891U 25155R   26138.17852323  .00008554  00000+0  27597-3 0  9991
2 64891  97.4536 107.3469 0003883 300.1022  59.9835 15.32390055 76223
GEOSCAN 4 (RS92S4)      
1 64892U 25155S   26138.16553744  .00008569  00000+0  27530-3 0  9999
2 64892  97.4540 107.3741 0003893 300.3316  59.7540 15.32525383 76226
GEOSCAN 3 (RS92S3)      
1 64893U 25155T   26138.20308248  .00011002  00000+0  33350-3 0  9995
2 64893  97.4529 107.7598 0003490 301.9950  58.0953 15.34307475 76257
INNOSAT 3 (RS92S0)      
1 64894U 25155U   26138.15095109  .00023390  00000+0  55701-3 0  9996
2 64894  97.4485 108.9833 0001757 311.5702  48.5393 15.41608721 76337
KNACKSAT-2              
1 67683U 98067XZ  26138.15020715  .00031493  00000+0  42858-3 0  9990
2 67683  51.6302  85.2389 0012324  88.8056 271.4348 15.57192031 15594
